[{"OBJECT_NAME":"STARLINK-6326","OBJECT_ID":"2023-078W","EPOCH":"2026-03-09T22:36:03.602304","MEAN_MOTION":14.98329674,"ECCENTRICITY":0.0001755,"INCLINATION":70.0003,"RA_OF_ASC_NODE":323.7288,"ARG_OF_PERICENTER":274.6103,"MEAN_ANOMALY":85.4855,"EPHEMERIS_TYPE":0,"CLASSIFICATION_TYPE":"U","NORAD_CAT_ID":56787,"ELEMENT_SET_NO":999,"REV_AT_EPOCH":15321,"BSTAR":-3.0224546e-5,"MEAN_MOTION_DOT":-4.53e-6,"MEAN_MOTION_DDOT":0},{"OBJECT_NAME":"LEMUR-2-ALISIA","OBJECT_ID":"2025-009DB","EPOCH":"2026-03-09T17:42:17.671392","MEAN_MOTION":15.01147598,"ECCENTRICITY":0.00065821,"INCLINATION":97.7037,"RA_OF_ASC_NODE":151.6973,"ARG_OF_PERICENTER":159.9869,"MEAN_ANOMALY":200.1615,"EPHEMERIS_TYPE":0,"CLASSIFICATION_TYPE":"U","NORAD_CAT_ID":62706,"ELEMENT_SET_NO":999,"REV_AT_EPOCH":8523,"BSTAR":0.00072005311,"MEAN_MOTION_DOT":9.177e-5,"MEAN_MOTION_DDOT":0}]
